#dP2024 11 20  0  0  0.00000000      97 __u+U IGS20 FIT  IAC
## 2341 259200.00000000   900.00000000 60634 0.0000000000000
+  117   C06C07C08C09C10C11C12C13C14C16C19C20C21C22C23C24C25
+        C26C27C28C29C30C32C33C34C35C36C37C38C39C40C41C42C43
+        C44C45E02E03E04E05E06E07E08E09E10E11E12E13E14E15E18
+        E19E21E24E25E26E27E29E30E31E33E34E36G02G03G04G05G06
+        G07G08G09G10G11G12G13G14G15G16G17G18G19G20G21G22G23
+        G24G25G26G27G28G29G30G31G32J02J03J04R01R03R04R05R07
+        R08R09R11R12R14R15R16R17R18R19R20R21R22R24R26  0  0
++         7  7  9  7  7  7  7  9  7  7  6  6  6  6  5  5  5
++         5  6  5  6  6  6  5  6  6  6  6  6  6  6  6  6  6
++         6  6  4  4  4  4  4  4  4  4  4  4  4  4  5  4  4
++         4  4  3  4  4  4  4  4  4  4  4  4  3  3  3  3  3
++         3  3  3  3  4  4  3  3  3  4  3  3  3  4  3  3  3
++         3  3  4  3  3  3  3  3  3 11 11 11  7  7  7  7  6
++         6  6  6  7  6  6  6  6  6  7  7  6  7  7  7  0  0
%c M  cc GPS ccc cccc cccc cccc cccc ccccc ccccc ccccc ccccc
%c cc cc ccc ccc cccc cccc cccc cccc ccccc ccccc ccccc ccccc
%f  1.2500000  1.025000000  0.00000000000  0.000000000000000
%f  0.0000000  0.000000000  0.00000000000  0.000000000000000
%i    0    0    0    0      0      0      0      0         0
%i    0    0    0    0      0      0      0      0         0
/* INFORMATION & ANALYSIS CENTER (IAC)            FINAL DATA
/* S/V CLOCKS ARE ALIGNED TO GNSS TIME                      
/* G:C1WC2W R:C1PC2P E:C1XC5X C:C2IC6I J:C1CC2S             
/* PCV:IGS20_2317 OL/AL:FES2004  NONE     YN ORB:CoN CLK:CoN
*  2024 11 20 23 45  0.00000000
PC06 -13587.554584  39977.580659  -2783.810608    458.625455
PC07  -2746.401811  31052.172185 -28192.158617   -187.429017
PC08 -16227.024465  21111.064882  32607.483562   -815.443185
PC09 -10239.652020  39945.041385  -9816.539813   -661.672660
PC10   4480.162641  33275.204462 -24823.268500   -293.412450
PC11   1727.954203  27840.694077    733.276460    252.267985
PC12  -9858.293482  20284.542260 -16386.129973   -246.051146
PC13  -8680.532349  22853.046503  34468.023411     86.966990
PC14   6806.096621  18145.253876  20062.739519   -451.850038
PC16 -16237.243105  39121.054336   1239.110488     86.928069
PC19 -16178.435361 -17984.363167 -13914.380570   -968.366381
PC20   1630.342488 -16083.397922 -22748.017778   -905.255404
PC21 -20411.885746   4089.087954  18600.807574   -913.424393
PC22 -25919.054797  -9770.038462   3466.439361    185.052423
PC23  20716.304389   1973.680545 -18600.987563   -892.133877
PC24 -13690.740388  20732.830872 -12699.876847    759.201504
PC25   5279.402270  16016.278978 -22246.752469    566.600771
PC26 -23864.128225  13850.442963   4021.115845   -380.127917
PC27  14059.354273 -11552.694817  21141.053706    399.071391
PC28  15975.761057   6947.784056  21810.030727    310.824203
PC29  -8740.701126 -25245.942695  -8063.064957    364.937837
PC30   4246.564714 -25620.624010  10184.549301     32.500483
PC32  20453.533619  -4169.420634 -18508.701376   -810.335863
PC33  16168.226477  17906.686902  14010.302364   -949.851478
PC34  -3078.608663  26380.466353  -8601.139768    568.718811
PC35 -16255.815728  -7112.484686 -21541.046474    202.766411
PC36  -5307.294023 -15919.523308  22313.020740    224.776644
PC37  24257.270723 -13144.810741  -4299.262155   -893.612142
PC38 -22280.270034  22874.263025  27513.913042    192.461049
PC39 -16105.650036  38714.343289   5608.899247    -10.380320
PC40  -6336.725569  26514.985108 -32058.581880   -103.735585
PC41  25806.659196  10304.897800  -2440.992914   -888.773651
PC42  -3758.546265  15353.526181  23031.182490   -519.805180
PC43   8193.280233  25715.716943   7124.263958     92.846390
PC44 -13787.720992  11984.869614 -21113.315183    658.359958
PC45 -20304.920402  -2464.927394  18961.171045   -171.432370
PE02  29543.370033   -839.682303   1812.585504    176.333957
PE03  19594.163768   3556.764613 -21908.657662   -154.796777
PE04  -8651.696130  16824.412490  22764.260635    -87.399097
PE05  18759.165999  21389.129087  -8177.446445   4803.529250
PE06   -875.402377  23735.917738  17649.689126    -49.741277
PE07  -6710.477946 -26780.877233 -10686.610441   -153.951810
PE08   9112.652000 -16111.174375 -23109.110851   -371.213213
PE09   6695.850603  26733.429887  10779.972584   -671.019725
PE10 -11929.316761  26614.214697   5026.795989   -671.247442
PE11  -4068.603225  25414.592226  14623.777286    673.166722
PE12 -17136.536460  23803.567848  -4029.765751  -1304.964146
PE13   4564.743188 -25580.694009 -14162.430366    -27.031683
PE14 -10010.617900  16236.935271 -19819.203812    396.115588
PE15  17439.446891 -23434.560081   4792.823684   -140.338080
PE18  -4779.199478 -27641.754395  11292.692523    795.873588
PE19 -19902.462201  -5664.172478  21164.276500    965.611845
PE21 -22640.638056 -11018.491962  15555.358747   -629.521241
PE24   2082.621386  16890.892527 -24236.396287  -1111.103012
PE25  22303.404942  11244.802357 -15887.767367     11.447817
PE26 -11191.101358 -12372.955331 -24437.269510   -205.736938
PE27  -2159.714541 -16822.840018  24257.642170   -509.402666
PE29 -18876.279626 -21150.899503   8479.481807    -47.319514
PE30  19275.560108 -12652.257489  18559.446203   -946.792804
PE31 -19305.550239  12629.306945 -18537.883869    -43.689263
PE33 -19764.575496   7128.487681 -20833.653088     16.195019
PE34  19850.828805  -7607.120692  20608.580837   -147.129492
PE36  10709.360492  12770.168456  24473.249494   -313.990132
PG02  14315.104003 -20661.842376   8455.626734   -309.992727
PG03  16112.612241 -12373.450509 -17213.575706    605.183414
PG04   6179.282954 -16263.860038 -20010.556606    482.898881
PG05 -25833.261989   5259.847031   3330.876655   -193.626358
PG06 -10005.578020 -11610.077337 -21602.793224   -130.292719
PG07   4666.168900 -24421.821836   9194.993899    -19.028691
PG08  14747.341247  -5585.667255  21296.165859    418.906384
PG09  -2892.684265 -21933.142962 -14740.259083    452.776723
PG10  16866.179576  10751.926125  17871.233947   -203.588421
PG11 -17143.088724   2343.835830 -20093.203659   -750.863332
PG12      0.000000      0.000000      0.000000   -553.405852
PG13 -17001.664955  -4189.974360  19809.568187    686.846811
PG14 -12988.063829 -13249.900844  19134.064241    544.051171
PG15 -13572.095519   7949.836540  20894.541728    230.192833
PG16  26768.252265   1264.101190  -1074.136486   -123.201040
PG17 -13066.621230 -22998.613064    557.340902    550.820318
PG18  -3974.599219  23812.098408  10842.125249   -660.510989
PG19 -17267.169542 -17990.681465  -9885.063690    565.096551
PG20 -25046.636064     99.917368  -8537.840660    368.556717
PG21  16182.253299 -15477.472081  13773.146635     96.957776
PG22 -19488.253899 -10711.386734  14682.791475    -80.919977
PG23   2108.120733  14628.185878  22108.547645    367.450748
PG24 -14534.802426  19819.879174   9067.999591   -479.049865
PG25  -6382.498448  15543.880168 -20865.536576    498.843646
PG26  23228.531494   5600.303708 -12171.498600     19.181101
PG27  19044.870582   6334.108145  17309.840203    -34.660472
PG28   9599.810219  13726.509415 -20627.865517   -485.163694
PG29    419.920033  21804.321945 -15117.643946   -562.236190
PG30  -4600.771297 -19642.846352  17289.855871   -277.760196
PG31  15821.783184   2563.211623 -21468.606280   -221.412146
PG32  16275.848215  20990.291317  -2225.684320   -570.871990
PJ02 -30811.182432  15583.601638 -19504.428641      0.324681
PJ03 -24058.401670  32524.383523  -7359.708268     -7.155630
PJ04 -27016.749193  25192.715375  26121.290379     21.599808
PR01   -719.982248  12253.182067  22356.746314    105.098966
PR03  21626.742979  12635.574230  -4968.011455    111.768248
PR04  16903.043120   1524.640047 -19026.844717    264.909880
PR05   3402.157479 -10611.008504 -22935.773332    141.013531
PR07 -21604.941246 -12332.483175   5538.595922     95.388126
PR08 -16773.011554   -999.741547  19231.232612     -6.231345
PR09  -3248.183288 -11006.784729  22793.198718    221.709400
PR11 -23579.517358   8777.283895   4262.489738      6.469831
PR12 -14908.579554  14595.826487 -14645.227679     47.476083
PR14  18265.825048    930.240942 -17763.426542     27.256834
PR15  23531.800573  -9526.665696  -2435.781321     73.919056
PR16  15012.487646 -14554.996842  14590.147771     30.959263
PR17   9290.730755   8765.176386  22087.137407    141.666584
PR18  10791.955277  -8991.283419  21304.276465    172.886926
PR19   8334.094972 -21269.355104  11368.408658   -299.169242
PR20   -899.032588 -23489.501509  -9845.791886   -122.173228
PR21  -8830.150707  -9976.058247 -21750.712366   -153.010291
PR22 -11256.679762  10045.894473 -20537.798601    -16.479386
PR24   2510.529610  23217.038824  10263.175364    -80.937338
PR26 -17838.111043  -2292.788451  18113.268488   -133.386921
EOF
